[{"OBJECT_NAME":"STARLINK-11432 [DTC]","OBJECT_ID":"2025-024D","EPOCH":"2026-03-09T07:19:11.713152","MEAN_MOTION":15.70976261,"ECCENTRICITY":0.00012096,"INCLINATION":43.0004,"RA_OF_ASC_NODE":183.996,"ARG_OF_PERICENTER":250.2836,"MEAN_ANOMALY":109.7901,"EPHEMERIS_TYPE":0,"CLASSIFICATION_TYPE":"U","NORAD_CAT_ID":62882,"ELEMENT_SET_NO":999,"REV_AT_EPOCH":6340,"BSTAR":0.001921432,"MEAN_MOTION_DOT":0.00255277,"MEAN_MOTION_DDOT":0},{"OBJECT_NAME":"GFO","OBJECT_ID":"1998-007A","EPOCH":"2026-03-09T11:35:22.629120","MEAN_MOTION":15.65801864,"ECCENTRICITY":0.00488061,"INCLINATION":108.0178,"RA_OF_ASC_NODE":266.8886,"ARG_OF_PERICENTER":194.2539,"MEAN_ANOMALY":165.7295,"EPHEMERIS_TYPE":0,"CLASSIFICATION_TYPE":"U","NORAD_CAT_ID":25157,"ELEMENT_SET_NO":999,"REV_AT_EPOCH":51081,"BSTAR":0.00066525992,"MEAN_MOTION_DOT":0.00072245,"MEAN_MOTION_DDOT":0}]
